{
  "type": "FeatureCollection",
  "features": [
    {
      "type": "Feature",
      "properties": {
        "norad_id": 30050,
        "name": "FENGYUN 1C DEB",
        "group": "fengyun-1c-debris",
        "lat": 75.88210793422826,
        "lon": 165.1370615471777,
        "alt_km": 980.4118771850526,
        "timestamp": "2025-12-26T04:40:06.059876+00:00",
        "meta_object_name": "FENGYUN 1C DEB",
        "meta_object_id": "1999-025PB",
        "meta_epoch": "2025-12-25T19:48:12.389760",
        "meta_mean_motion": 13.85088382,
        "meta_eccentricity": 0.01709486,
        "meta_inclination": 96.8194,
        "meta_ra_of_asc_node": 316.4593,
        "meta_arg_of_pericenter": 353.0578,
        "meta_mean_anomaly": 66.7155,
        "meta_ephemeris_type": 0,
        "meta_classification_type": "U",
        "meta_norad_cat_id": 30050,
        "meta_element_set_no": 999,
        "meta_rev_at_epoch": 95383,
        "meta_bstar": 0.0012822155,
        "meta_mean_motion_dot": 1.6e-05,
        "meta_mean_motion_ddot": 0,
        "tle_line1": "1 30050U 99025PB  25359.82514340  .00001600  00000+0  12822-2 0  9997",
        "tle_line2": "2 30050  96.8194 316.4593 0170948 353.0578  66.7155 13.85088382953832"
      },
      "geometry": {
        "type": "Point",
        "coordinates": [
          165.1370615471777,
          75.88210793422826
        ]
      }
    },
    {
      "type": "Feature",
      "properties": {
        "norad_id": 30052,
        "name": "FENGYUN 1C DEB",
        "group": "fengyun-1c-debris",
        "lat": 27.61050997328408,
        "lon": -149.6648203695935,
        "alt_km": 834.0736633337601,
        "timestamp": "2025-12-26T04:40:06.059887+00:00",
        "meta_object_name": "FENGYUN 1C DEB",
        "meta_object_id": "1999-025PD",
        "meta_epoch": "2025-12-25T16:18:28.455264",
        "meta_mean_motion": 13.72975255,
        "meta_eccentricity": 0.02894023,
        "meta_inclination": 99.2982,
        "meta_ra_of_asc_node": 24.9191,
        "meta_arg_of_pericenter": 198.3388,
        "meta_mean_anomaly": 291.6264,
        "meta_ephemeris_type": 0,
        "meta_classification_type": "U",
        "meta_norad_cat_id": 30052,
        "meta_element_set_no": 999,
        "meta_rev_at_epoch": 94732,
        "meta_bstar": 0.00045311856,
        "meta_mean_motion_dot": 5.22e-06,
        "meta_mean_motion_ddot": 0,
        "tle_line1": "1 30052U 99025PD  25359.67949601  .00000522  00000+0  45312-3 0  9997",
        "tle_line2": "2 30052  99.2982  24.9191 0289402 198.3388 291.6264 13.72975255947323"
      },
      "geometry": {
        "type": "Point",
        "coordinates": [
          -149.6648203695935,
          27.61050997328408
        ]
      }
    },
    {
      "type": "Feature",
      "properties": {
        "norad_id": 30053,
        "name": "FENGYUN 1C DEB",
        "group": "fengyun-1c-debris",
        "lat": -62.636190542101495,
        "lon": -170.67398704289627,
        "alt_km": 680.0927462794707,
        "timestamp": "2025-12-26T04:40:06.059898+00:00",
        "meta_object_name": "FENGYUN 1C DEB",
        "meta_object_id": "1999-025PE",
        "meta_epoch": "2025-12-25T22:49:53.070816",
        "meta_mean_motion": 13.94218479,
        "meta_eccentricity": 0.03314858,
        "meta_inclination": 98.576,
        "meta_ra_of_asc_node": 172.1478,
        "meta_arg_of_pericenter": 301.6853,
        "meta_mean_anomaly": 214.7477,
        "meta_ephemeris_type": 0,
        "meta_classification_type": "U",
        "meta_norad_cat_id": 30053,
        "meta_element_set_no": 999,
        "meta_rev_at_epoch": 95170,
        "meta_bstar": 0.0018081922,
        "meta_mean_motion_dot": 3.747e-05,
        "meta_mean_motion_ddot": 0,
        "tle_line1": "1 30053U 99025PE  25359.95130869  .00003747  00000+0  18082-2 0  9992",
        "tle_line2": "2 30053  98.5760 172.1478 0331485 301.6853 214.7477 13.94218479951700"
      },
      "geometry": {
        "type": "Point",
        "coordinates": [
          -170.67398704289627,
          -62.636190542101495
        ]
      }
    },
    {
      "type": "Feature",
      "properties": {
        "norad_id": 30054,
        "name": "FENGYUN 1C DEB",
        "group": "fengyun-1c-debris",
        "lat": -60.47098907644361,
        "lon": 49.03638779636626,
        "alt_km": 833.3715008222944,
        "timestamp": "2025-12-26T04:40:06.059908+00:00",
        "meta_object_name": "FENGYUN 1C DEB",
        "meta_object_id": "1999-025PF",
        "meta_epoch": "2025-12-25T15:32:47.141376",
        "meta_mean_motion": 13.69879736,
        "meta_eccentricity": 0.0275314,
        "meta_inclination": 99.3702,
        "meta_ra_of_asc_node": 31.5561,
        "meta_arg_of_pericenter": 331.675,
        "meta_mean_anomaly": 153.2622,
        "meta_ephemeris_type": 0,
        "meta_classification_type": "U",
        "meta_norad_cat_id": 30054,
        "meta_element_set_no": 999,
        "meta_rev_at_epoch": 94525,
        "meta_bstar": 0.00048685,
        "meta_mean_motion_dot": 5.12e-06,
        "meta_mean_motion_ddot": 0,
        "tle_line1": "1 30054U 99025PF  25359.64776784  .00000512  00000+0  48685-3 0  9991",
        "tle_line2": "2 30054  99.3702  31.5561 0275314 331.6750 153.2622 13.69879736945257"
      },
      "geometry": {
        "type": "Point",
        "coordinates": [
          49.03638779636626,
          -60.47098907644361
        ]
      }
    },
    {
      "type": "Feature",
      "properties": {
        "norad_id": 30056,
        "name": "FENGYUN 1C DEB",
        "group": "fengyun-1c-debris",
        "lat": 76.17126137417996,
        "lon": 147.64459088987212,
        "alt_km": 992.5142167016811,
        "timestamp": "2025-12-26T04:40:06.059918+00:00",
        "meta_object_name": "FENGYUN 1C DEB",
        "meta_object_id": "1999-025PH",
        "meta_epoch": "2025-12-25T12:32:30.651072",
        "meta_mean_motion": 13.74061904,
        "meta_eccentricity": 0.0299039,
        "meta_inclination": 98.3229,
        "meta_ra_of_asc_node": 183.5474,
        "meta_arg_of_pericenter": 176.2965,
        "meta_mean_anomaly": 184.0501,
        "meta_ephemeris_type": 0,
        "meta_classification_type": "U",
        "meta_norad_cat_id": 30056,
        "meta_element_set_no": 999,
        "meta_rev_at_epoch": 94151,
        "meta_bstar": 0.0025009,
        "meta_mean_motion_dot": 3.213e-05,
        "meta_mean_motion_ddot": 0,
        "tle_line1": "1 30056U 99025PH  25359.52257698  .00003213  00000+0  25009-2 0  9993",
        "tle_line2": "2 30056  98.3229 183.5474 0299039 176.2965 184.0501 13.74061904941513"
      },
      "geometry": {
        "type": "Point",
        "coordinates": [
          147.64459088987212,
          76.17126137417996
        ]
      }
    },
    {
      "type": "Feature",
      "properties": {
        "norad_id": 30057,
        "name": "FENGYUN 1C DEB",
        "group": "fengyun-1c-debris",
        "lat": 67.64536017382285,
        "lon": -90.00385983774864,
        "alt_km": 822.8406798336846,
        "timestamp": "2025-12-26T04:40:06.059928+00:00",
        "meta_object_name": "FENGYUN 1C DEB",
        "meta_object_id": "1999-025PJ",
        "meta_epoch": "2025-12-25T10:47:21.082848",
        "meta_mean_motion": 13.57152056,
        "meta_eccentricity": 0.0291741,
        "meta_inclination": 98.8824,
        "meta_ra_of_asc_node": 66.9733,
        "meta_arg_of_pericenter": 113.782,
        "meta_mean_anomaly": 319.0616,
        "meta_ephemeris_type": 0,
        "meta_classification_type": "U",
        "meta_norad_cat_id": 30057,
        "meta_element_set_no": 999,
        "meta_rev_at_epoch": 93408,
        "meta_bstar": 0.0012196,
        "meta_mean_motion_dot": 1.11e-05,
        "meta_mean_motion_ddot": 0,
        "tle_line1": "1 30057U 99025PJ  25359.44954957  .00001110  00000+0  12196-2 0  9994",
        "tle_line2": "2 30057  98.8824  66.9733 0291741 113.7820 319.0616 13.57152056934081"
      },
      "geometry": {
        "type": "Point",
        "coordinates": [
          -90.00385983774864,
          67.64536017382285
        ]
      }
    },
    {
      "type": "Feature",
      "properties": {
        "norad_id": 30058,
        "name": "FENGYUN 1C DEB",
        "group": "fengyun-1c-debris",
        "lat": 70.98052772528554,
        "lon": -146.4254296308264,
        "alt_km": 841.546812347301,
        "timestamp": "2025-12-26T04:40:06.059939+00:00",
        "meta_object_name": "FENGYUN 1C DEB",
        "meta_object_id": "1999-025PK",
        "meta_epoch": "2025-12-25T22:58:24.150144",
        "meta_mean_motion": 13.48253074,
        "meta_eccentricity": 0.03157584,
        "meta_inclination": 99.6499,
        "meta_ra_of_asc_node": 3.7701,
        "meta_arg_of_pericenter": 119.5682,
        "meta_mean_anomaly": 276.484,
        "meta_ephemeris_type": 0,
        "meta_classification_type": "U",
        "meta_norad_cat_id": 30058,
        "meta_element_set_no": 999,
        "meta_rev_at_epoch": 93026,
        "meta_bstar": 0.00070420712,
        "meta_mean_motion_dot": 5.51e-06,
        "meta_mean_motion_ddot": 0,
        "tle_line1": "1 30058U 99025PK  25359.95722396  .00000551  00000+0  70421-3 0  9995",
        "tle_line2": "2 30058  99.6499   3.7701 0315758 119.5682 276.4840 13.48253074930261"
      },
      "geometry": {
        "type": "Point",
        "coordinates": [
          -146.4254296308264,
          70.98052772528554
        ]
      }
    }
  ]
}